OBJECT_NAME,OBJECT_ID,EPOCH,MEAN_MOTION,ECCENTRICITY,INCLINATION,RA_OF_ASC_NODE,ARG_OF_PERICENTER,MEAN_ANOMALY,EPHEMERIS_TYPE,CLASSIFICATION_TYPE,NORAD_CAT_ID,ELEMENT_SET_NO,REV_AT_EPOCH,BSTAR,MEAN_MOTION_DOT,MEAN_MOTION_DDOT
SYRACUSE 4B,2023-093B,2026-07-13T13:26:01.019328,1.00269537,.00004482,0.0280,56.3015,204.3313,225.8578,0,U,57214,999,723,0,0,0
JUPITER 3 (ECHOSTAR 24),2023-108A,2026-07-13T10:55:27.126048,1.00272946,.0001178,0.0124,33.8048,74.3050,251.8897,0,U,57479,999,1090,0,-.154E-5,0
GALAXY 37 (G-37),2023-112A,2026-07-13T14:34:18.635232,1.00271208,.00017361,0.0209,72.2234,45.1732,265.6549,0,U,57493,999,1080,0,.44E-6,0
LUDI TANCE-4 01A,2023-120A,2026-07-13T00:11:59.121024,1.00276195,.00012747,15.0878,193.3306,21.4011,168.6233,0,U,57624,999,1080,0,-.172E-5,0
TJS-10,2023-169A,2026-07-13T17:52:09.208128,1.00274171,.0004074,2.6105,80.1722,115.9637,95.8858,0,U,58204,999,980,0,-.256E-5,0
ZHONGXING-6E,2023-172A,2026-07-13T17:26:06.711648,1.00272481,.000267,0.0161,84.1007,26.2266,198.3062,0,U,58253,999,992,0,-.366E-5,0
YAOGAN-41,2023-197A,2026-07-13T13:45:50.931360,1.00266392,.00142687,3.0818,313.5528,198.6775,108.8164,0,U,58582,999,958,0,-.362E-5,0
OVZON-3,2024-003A,2026-07-13T05:11:37.493088,1.00269534,.0000327,0.0179,86.9492,215.9338,125.7993,0,U,58698,999,770,0,.49E-6,0
INSAT-3DS,2024-033A,2026-07-13T13:51:19.404288,1.00271042,.00010343,0.0959,265.0399,225.6037,90.7107,0,U,58990,999,4733,0,-.16E-5,0
MERAH PUTIH 2,2024-035A,2026-07-13T14:00:03.566304,1.00270931,.00010585,0.0194,80.4960,35.2690,138.6643,0,U,58995,999,885,0,-.362E-5,0
TJS-11,2024-037A,2026-07-13T12:14:24.194400,1.00274497,.0001797,4.1655,327.4058,148.2394,111.8866,0,U,59020,999,884,0,-.362E-5,0
HULIANWAN GAOGUI-01 (HG-01),2024-040A,2026-07-13T13:37:22.430208,1.00269131,.00016828,0.0752,331.6701,70.8841,126.8493,0,U,59069,999,759,0,.152E-5,0
EUTELSAT 36D,2024-059A,2026-07-13T13:38:07.358208,1.00269843,.00002476,0.0267,55.9258,201.7133,274.2229,0,U,59346,999,841,0,0,0
PAKSAT-MM1,2024-104A,2026-07-13T13:38:44.797920,1.00269751,.00019635,0.0311,143.3666,313.2921,77.6097,0,U,59915,999,779,0,.15E-5,0
ASTRA 1P (SES-24),2024-115A,2026-07-13T08:25:18.669792,1.00281209,.00014971,0.0666,329.5187,236.9138,230.3347,0,U,60086,999,746,0,.118E-5,0
GOES 19,2024-119A,2026-07-13T13:06:25.396992,1.00271894,.00004465,0.0030,272.3551,304.8834,195.5900,0,U,60133,999,722,0,-.252E-5,0
ZHONGXING-3A,2024-122A,2026-07-13T14:28:38.759232,1.00267581,.0001789,0.0257,124.2051,42.5988,83.4266,0,U,60179,999,757,0,-.317E-5,0
TURKSAT 6A,2024-127A,2026-07-13T13:39:52.189920,1.00269184,.000293,0.0175,226.2789,304.6377,7.4785,0,U,60233,999,728,0,0,0
HULIANWAN GAOGUI-02 (HG-02),2024-135A,2026-07-13T14:11:13.347744,1.00269734,.00063281,0.0468,354.0280,13.5789,289.6931,0,U,60327,999,776,0,-.178E-5,0
ZHONGXING-4A,2024-151A,2026-07-13T14:01:33.423168,1.00268064,.00003924,1.2480,270.5098,302.2760,47.2587,0,U,60606,999,701,0,-.365E-5,0
HULIANWAN GAOGUI-03 (HG-03),2024-181A,2026-07-13T14:48:32.270688,1.00269403,.00010156,0.0508,356.7325,88.0158,351.7606,0,U,61503,999,709,0,-.245E-5,0
DSN-3 (KIRAMEKI-3),2024-198A,2026-07-13T13:54:24.677856,1.00270404,.00008186,0.0235,46.9431,95.4541,141.7340,0,U,61733,999,618,0,0,0
KOREASAT 6A,2024-206A,2026-07-13T14:00:55.982592,1.00270911,.00007098,0.0165,79.6127,8.7921,169.2994,0,U,61910,999,610,0,-.366E-5,0
OPTUS-X (ADS-01),2024-212A,2026-07-13T14:12:28.228032,1.00270070,.00023638,0.0155,42.1988,112.0982,146.6751,0,U,62006,999,602,0,-.148E-5,0
GSAT-N2 (GSAT-20),2024-214A,2026-07-13T13:47:12.300288,1.00270713,.00026267,0.0791,263.1468,141.8685,161.1661,0,U,62028,999,616,0,-.23E-6,0
SXM-9,2024-234A,2026-07-12T06:15:50.293728,1.00268373,.000502,0.0182,333.2441,342.7559,342.9520,0,U,62259,999,582,0,-.203E-5,0
TJS-12,2024-246A,2026-07-13T13:14:26.280384,1.00269290,.00017636,0.6154,301.8697,96.3699,238.3331,0,U,62374,999,582,0,-.235E-5,0
NUVIEW ALPHA,2024-252B,2026-07-13T11:21:28.977120,1.00271315,.0000962,0.0417,21.6910,56.2738,300.6495,0,U,62455,999,408,0,-.219E-5,0
AGILA,2024-252C,2026-07-13T07:25:27.757056,1.00273104,.000134,0.0473,136.4641,16.3373,41.9275,0,U,62456,999,542,0,-.184E-5,0
NUVIEW BRAVO,2024-252D,2026-07-13T11:21:28.977120,1.00268851,.00014045,0.0684,168.1607,344.8094,225.6399,0,U,62457,999,405,0,-.218E-5,0
THURAYA-4,2025-001A,2026-07-12T21:39:38.784672,1.00272578,.00002295,0.0194,68.8467,203.8382,27.3208,0,U,62483,999,443,0,.138E-5,0
SHIJIAN-25 (SJ-25),2025-002A,2026-07-13T12:21:30.377088,1.00262897,.0052162,5.1734,60.9955,175.3750,7.5757,0,U,62485,999,562,0,-.359E-5,0
