SYRACUSE 4B             
1 57214U 23093B   26194.55973402  .00000000  00000+0  00000+0 0  9991
2 57214   0.0280  56.3015 0000448 204.3313 225.8578  1.00269537  7235
JUPITER 3 (ECHOSTAR 24) 
1 57479U 23108A   26194.45517507 -.00000154  00000+0  00000+0 0  9991
2 57479   0.0124  33.8048 0001178  74.3050 251.8897  1.00272946 10904
GALAXY 37 (G-37)        
1 57493U 23112A   26194.60716013  .00000044  00000+0  00000+0 0  9999
2 57493   0.0209  72.2234 0001736  45.1732 265.6549  1.00271208 10807
LUDI TANCE-4 01A        
1 57624U 23120A   26194.00832316 -.00000172  00000+0  00000+0 0  9996
2 57624  15.0878 193.3306 0001274  21.4011 168.6233  1.00276195 10802
TJS-10                  
1 58204U 23169A   26194.74455102 -.00000256  00000+0  00000+0 0  9992
2 58204   2.6105  80.1722 0004074 115.9637  95.8858  1.00274171  9805
ZHONGXING-6E            
1 58253U 23172A   26194.72646657 -.00000366  00000+0  00000+0 0  9997
2 58253   0.0161  84.1007 0002670  26.2266 198.3062  1.00272481  9926
YAOGAN-41               
1 58582U 23197A   26194.57350615 -.00000362  00000+0  00000+0 0  9994
2 58582   3.0818 313.5528 0014268 198.6775 108.8164  1.00266392  9580
OVZON-3                 
1 58698U 24003A   26194.21640617  .00000049  00000+0  00000+0 0  9995
2 58698   0.0179  86.9492 0000327 215.9338 125.7993  1.00269534  7706
INSAT-3DS               
1 58990U 24033A   26194.57730792 -.00000160  00000+0  00000+0 0  9991
2 58990   0.0959 265.0399 0001034 225.6037  90.7107  1.00271042 47331
MERAH PUTIH 2           
1 58995U 24035A   26194.58337461 -.00000362  00000+0  00000+0 0  9999
2 58995   0.0194  80.4960 0001058  35.2690 138.6643  1.00270931  8853
TJS-11                  
1 59020U 24037A   26194.51000225 -.00000362  00000+0  00000+0 0  9999
2 59020   4.1655 327.4058 0001797 148.2394 111.8866  1.00274497  8848
HULIANWAN GAOGUI-01 (H*)
1 59069U 24040A   26194.56762072  .00000152  00000+0  00000+0 0  9992
2 59069   0.0752 331.6701 0001682  70.8841 126.8493  1.00269131  7598
EUTELSAT 36D            
1 59346U 24059A   26194.56814072  .00000000  00000+0  00000+0 0  9990
2 59346   0.0267  55.9258 0000247 201.7133 274.2229  1.00269843  8412
PAKSAT-MM1              
1 59915U 24104A   26194.56857405  .00000150  00000+0  00000+0 0  9996
2 59915   0.0311 143.3666 0001963 313.2921  77.6097  1.00269751  7795
ASTRA 1P (SES-24)       
1 60086U 24115A   26194.35091053  .00000118  00000+0  00000+0 0  9999
2 60086   0.0666 329.5187 0001497 236.9138 230.3347  1.00281209  7460
GOES 19                 
1 60133U 24119A   26194.54612728 -.00000252  00000+0  00000+0 0  9995
2 60133   0.0030 272.3551 0000446 304.8834 195.5900  1.00271894  7229
ZHONGXING-3A            
1 60179U 24122A   26194.60322638 -.00000317  00000+0  00000+0 0  9996
2 60179   0.0257 124.2051 0001789  42.5988  83.4266  1.00267581  7573
TURKSAT 6A              
1 60233U 24127A   26194.56935405  .00000000  00000+0  00000+0 0  9997
2 60233   0.0175 226.2789 0002930 304.6377   7.4785  1.00269184  7288
HULIANWAN GAOGUI-02 (H*)
1 60327U 24135A   26194.59112671 -.00000178  00000+0  00000+0 0  9992
2 60327   0.0468 354.0280 0006328  13.5789 289.6931  1.00269734  7762
ZHONGXING-4A            
1 60606U 24151A   26194.58441462 -.00000365  00000+0  00000+0 0  9990
2 60606   1.2480 270.5098 0000392 302.2760  47.2587  1.00268064  7018
HULIANWAN GAOGUI-03 (H*)
1 61503U 24181A   26194.61704017 -.00000245  00000+0  00000+0 0  9999
2 61503   0.0508 356.7325 0001015  88.0158 351.7606  1.00269403  7097
DSN-3 (KIRAMEKI-3)      
1 61733U 24198A   26194.57945229  .00000000  00000+0  00000+0 0  9997
2 61733   0.0235  46.9431 0000818  95.4541 141.7340  1.00270404  6187
KOREASAT 6A             
1 61910U 24206A   26194.58398128 -.00000366  00000+0  00000+0 0  9991
2 61910   0.0165  79.6127 0000709   8.7921 169.2994  1.00270911  6104
OPTUS-X (ADS-01)        
1 62006U 24212A   26194.59199338 -.00000148  00000+0  00000+0 0  9996
2 62006   0.0155  42.1988 0002363 112.0982 146.6751  1.00270070  6021
GSAT-N2 (GSAT-20)       
1 62028U 24214A   26194.57444792 -.00000023  00000+0  00000+0 0  9999
2 62028   0.0791 263.1468 0002626 141.8685 161.1661  1.00270713  6162
SXM-9                   
1 62259U 24234A   26193.26099877 -.00000203  00000+0  00000+0 0  9992
2 62259   0.0182 333.2441 0005020 342.7559 342.9520  1.00268373  5829
TJS-12                  
1 62374U 24246A   26194.55169306 -.00000235  00000+0  00000+0 0  9996
2 62374   0.6154 301.8697 0001763  96.3699 238.3331  1.00269290  5820
NUVIEW ALPHA            
1 62455U 24252B   26194.47325205 -.00000219  00000+0  00000+0 0  9998
2 62455   0.0417  21.6910 0000962  56.2738 300.6495  1.00271315  4082
AGILA                   
1 62456U 24252C   26194.30934904 -.00000184  00000+0  00000+0 0  9994
2 62456   0.0473 136.4641 0001340  16.3373  41.9275  1.00273104  5422
NUVIEW BRAVO            
1 62457U 24252D   26194.47325205 -.00000218  00000+0  00000+0 0  9999
2 62457   0.0684 168.1607 0001404 344.8094 225.6399  1.00268851  4050
THURAYA-4               
1 62483U 25001A   26193.90253223  .00000138  00000+0  00000+0 0  9998
2 62483   0.0194  68.8467 0000229 203.8382  27.3208  1.00272578  4432
SHIJIAN-25 (SJ-25)      
1 62485U 25002A   26194.51493492 -.00000359  00000+0  00000+0 0  9999
2 62485   5.1734  60.9955 0052162 175.3750   7.5757  1.00262897  5624
